MEAN_MOTION;ECCENTRICITY;INCLINATION;RA_OF_ASC_NODE;ARG_OF_PERICENTER;MEAN_ANOMALY;BSTAR;MEAN_MOTION_DOT;MEAN_MOTION_DDOT;TYPE
1.00271695;0.0002088;0.0201;150.606;30.6012;313.954;0;-3.8E-7;0;Intelsat
1.00271412;0.0002241;0.0197;150.6883;31.4237;110.3639;0;-3.9E-7;0;Intelsat
1.00272902;0.000211;0.0185;154.7201;30.8655;340.9577;0;-4.2E-7;0;Intelsat
1.00273349;0.0002137;0.0179;155.1961;31.1823;5.2305;0;-4.2E-7;0;Intelsat
1.00270155;0.0002265;0.0157;161.3345;22.4827;10.5999;0;-4.5E-7;0;Intelsat
1.00271744;0.0002207;0.0166;159.4266;25.8866;112.7547;0;-4.6E-7;0;Intelsat
1.00273112;0.0002109;0.0175;157.7279;27.7609;216.2497;0;-4.7E-7;0;Intelsat
1.00271423;0.0001975;0.0153;162.9161;22.716;323.3358;0;-4.8E-7;0;Intelsat
1.00271379;0.0002228;0.0148;164.4762;22.3592;114.0643;0;-4.8E-7;0;Intelsat
1.00271463;0.0002219;0.0157;161.7867;24.7364;262.7683;0;-4.9E-7;0;Intelsat
1.00271449;0.0002234;0.016;160.2401;25.6497;315.983;0;-5.0E-7;0;Intelsat
1.00271609;0.0002221;0.0181;156.7085;28.2899;248.2541;0;-5.0E-7;0;Intelsat
1.00271698;0.0002132;0.0156;138.9508;35.5002;35.5925;0;-5.0E-7;0;Intelsat
1.00271797;0.0002099;0.017;140.7967;45.8351;119.8681;0;-5.0E-7;0;Intelsat
1.00271781;0.0002133;0.0178;137.0405;42.7925;34.9514;0;-5.0E-7;0;Intelsat
1.00271506;0.0001871;0.018;137.6244;34.4326;344.5429;0;-4.9E-7;0;Intelsat
1.0027073;0.0001809;0.0168;140.6283;30.9522;321.9204;0;-4.8E-7;0;Intelsat
1.002717;0.0002009;0.0157;141.1793;33.5697;114.2404;0;-4.7E-7;0;Intelsat
1.00267442;0.0002093;0.0293;156.0275;35.4167;326.9523;0;-4.6E-7;0;Intelsat
1.00271411;0.0001777;0.0115;173.8632;16.916;230.6056;0;-4.6E-7;0;Intelsat
1.00271486;0.0001777;0.0126;171.1691;19.3018;308.6422;0;-4.6E-7;0;Intelsat
1.00271379;0.000204;0.011;172.5528;18.513;233.1265;0;-4.5E-7;0;Intelsat
1.00271862;0.0001945;0.0167;148.5641;37.1468;21.2196;0;-4.5E-7;0;Intelsat
1.00276031;0.0001741;0.017;147.7321;27.8003;121.8876;0;-4.6E-7;0;Intelsat
1.00271657;0.0001912;0.0173;145.6601;38.6346;268.5866;0;-4.5E-7;0;Intelsat
1.00271897;0.000193;0.0185;144.5038;39.4784;13.6598;0;-4.4E-7;0;Intelsat
1.00271883;0.0001924;0.0184;144.7027;39.2875;38.4765;0;-4.4E-7;0;Intelsat
1.00271743;0.0001936;0.0189;141.6513;40.3349;273.7034;0;-4.4E-7;0;Intelsat
1.00270681;0.0001929;0.0195;140.1317;37.8276;40.2172;0;-4.3E-7;0;Intelsat
1.00270731;0.0001878;0.0199;139.9835;41.5946;121.3869;0;-4.3E-7;0;Intelsat
1.002716;0.0001727;0.0187;140.6129;40.2205;263.4607;0;-4.3E-7;0;Intelsat
1.00270537;0.0001895;0.0183;142.2128;38.3718;47.1296;0;-4.2E-7;0;Intelsat
1.00272277;0.0001785;0.019;140.4942;40.6492;254.2202;0;-4.2E-7;0;Intelsat
1.002708;0.0001956;0.0163;140.259;37.6904;52.888;0;-4.1E-7;0;Intelsat
1.00272528;0.0001948;0.0181;141.5475;29.3752;267.2215;0;-4.0E-7;0;Intelsat
1.00271334;0.0002056;0.0159;144.1837;28.7718;51.0325;0;-4.0E-7;0;Intelsat
1.00271323;0.0001791;0.0148;171.0189;19.8628;301.9001;0;-3.8E-7;0;Intelsat
1.00272212;0.0001926;0.0117;170.9079;20.3681;97.0079;0;-3.7E-7;0;Intelsat
1.00270272;0.0001721;0.0116;176.3578;13.4449;279.8774;0;-3.6E-7;0;Intelsat
1.00271286;0.0002008;0.0114;173.4305;16.1913;256.946;0;-3.4E-7;0;Intelsat
1.00271368;0.0001981;0.0145;170.3898;19.0894;26.66;0;-3.3E-7;0;Intelsat
1.00271397;0.000205;0.0166;143.8669;33.5231;142.3263;0;-3.2E-7;0;Intelsat
1.00271294;0.0001915;0.0181;140.7362;47.3656;30.8399;0;-3.1E-7;0;Intelsat
1.00271242;0.0001724;0.0182;143.6793;41.9408;240.6252;0;-2.9E-7;0;Intelsat
1.0027086;0.0001699;0.0181;143.4543;42.441;266.2665;0;-2.9E-7;0;Intelsat
1.00272113;0.0001845;0.0188;143.6364;36.99;349.224;0;-2.9E-7;0;Intelsat
1.00272142;0.0001871;0.0187;141.2584;37.5678;250.2323;0;-2.8E-7;0;Intelsat
1.00272694;0.0001724;0.0129;171.3911;20.3377;343.8002;0;-2.7E-7;0;Intelsat
1.00272895;0.0001716;0.0126;175.8054;16.4969;346.0355;0;-2.7E-7;0;Intelsat
1.00272205;0.0001687;0.0124;180.6387;10.5895;332.6078;0;-2.8E-7;0;Intelsat
1.00271435;0.0001806;0.0108;180.1636;10.1767;112.8756;0;-2.9E-7;0;Intelsat
1.00271491;0.0001847;0.0123;172.332;15.5986;44.4317;0;-3.1E-7;0;Intelsat
1.00271528;0.0001851;0.0145;173.9792;13.6393;125.8879;0;-3.1E-7;0;Intelsat
1.0027138;0.0001963;0.0189;144.9666;33.6488;212.8265;0;-3.2E-7;0;Intelsat
1.0027128;0.000177;0.0198;143.5336;47.3853;34.1601;0;-3.4E-7;0;Intelsat
1.00271225;0.0001776;0.021;141.6322;48.6063;267.363;0;-3.6E-7;0;Intelsat
1.00270475;0.0002086;0.0206;140.7127;41.5486;59.0955;0;-3.7E-7;0;Intelsat
1.00272385;0.0001964;0.0218;139.7339;43.9842;287.3476;0;-4.0E-7;0;Intelsat
1.00271017;0.0002036;0.0201;142.9222;40.7629;43.8401;0;-4.1E-7;0;Intelsat
1.00271593;0.0001843;0.0207;143.4899;41.0001;3.5769;0;-4.3E-7;0;Intelsat
1.00272271;0.0001887;0.0122;172.1053;19.5835;32.1662;0;-4.5E-7;0;Intelsat
1.00271977;0.0001719;0.0137;169.442;34.3434;266.0352;0;-4.6E-7;0;Intelsat
1.00271909;0.0001734;0.0123;180.956;12.7985;317.9677;0;-4.6E-7;0;Intelsat
1.00270394;0.0001709;0.0207;148.697;43.7252;322.1037;0;-4.5E-7;0;Intelsat
1.00270516;0.0001816;0.0218;142.8816;44.0694;356.2932;0;-4.4E-7;0;Intelsat
1.00272267;0.0001892;0.0219;142.0943;45.3281;254.9277;0;-4.3E-7;0;Intelsat
1.00272209;0.0001848;0.0212;144.5873;45.7743;17.9659;0;-4.3E-7;0;Intelsat
1.00271786;0.0001846;0.017;173.4289;24.3011;42.9371;0;-4.2E-7;0;Intelsat
1.00271726;0.0001852;0.0173;172.8516;24.426;89.5666;0;-4.1E-7;0;Intelsat
1.00271955;0.000182;0.0143;176.9438;22.7944;45.4556;0;-4.1E-7;0;Intelsat
1.0027209;0.000181;0.0131;173.3108;26.0043;121.9045;0;-4.0E-7;0;Intelsat
1.00272694;0.0001772;0.0168;172.9971;26.3636;198.1507;0;-4.1E-7;0;Intelsat
1.00271209;0.0001852;0.0111;183.3907;16.6769;49.0221;0;-4.0E-7;0;Intelsat
1.00272135;0.0001795;0.0118;179.2991;21.2497;143.739;0;-4.0E-7;0;Intelsat
1.00271534;0.000164;0.0107;187.9462;14.1249;273.3887;0;-3.9E-7;0;Intelsat
1.00271447;0.0001627;0.0124;179.8074;21.3193;47.9743;0;-3.9E-7;0;Intelsat
1.00271587;0.0001598;0.014;171.2521;28.8236;219.2125;0;-3.8E-7;0;Intelsat
1.00271601;0.0001604;0.0146;171.4297;28.1905;276.3213;0;-3.9E-7;0;Intelsat
1.0027168;0.0001599;0.02;153.45;41.6106;56.8329;0;-3.8E-7;0;Intelsat
1.0027022;0.0001666;0.0206;153.4941;40.6876;271.2084;0;-3.7E-7;0;Intelsat
1.00269962;0.0001876;0.0204;153.9061;42.206;32.6544;0;-3.6E-7;0;Intelsat
1.00271795;0.0001751;0.0215;151.9177;45.1683;239.017;0;-3.6E-7;0;Intelsat
1.00271587;0.0001736;0.0204;153.467;44.3626;33.7565;0;-3.5E-7;0;Intelsat
1.00271177;0.0001591;0.0162;167.7421;33.4879;263.5827;0;-3.3E-7;0;Intelsat
1.00273212;0.0001696;0.0174;165.1369;39.7259;3.6063;0;-3.3E-7;0;Intelsat
1.00272014;0.0001659;0.0155;170.0002;30.957;40.7721;0;-3.3E-7;0;Intelsat
1.00270699;0.0001553;0.015;174.4726;26.831;266.3;0;-3.1E-7;0;Intelsat
1.00270639;0.0001753;0.0133;179.4433;20.8545;36.8897;0;-3.0E-7;0;Intelsat
1.00272232;0.000163;0.0168;167.2035;33.4859;269.7163;0;-2.9E-7;0;Intelsat
1.002712;0.0001677;0.0075;199.8921;0.6599;39.3718;0;-2.8E-7;0;Intelsat
1.00272466;0.0001588;0.0146;177.5387;23.3877;272.2497;0;-2.6E-7;0;Intelsat
1.00271285;0.0001482;0.0084;200.1815;1.5353;41.0086;0;-2.5E-7;0;Intelsat
1.00271298;0.0001483;0.0148;171.5079;28.4869;227.6899;0;-2.4E-7;0;Intelsat
1.00271302;0.0001488;0.0152;170.603;28.9151;276.4583;0;-2.4E-7;0;Intelsat
1.0027128;0.0001514;0.0229;150.6845;45.1938;35.2506;0;-2.3E-7;0;Intelsat
1.00271247;0.0001551;0.0237;150.8266;43.7812;232.3099;0;-2.2E-7;0;Intelsat
1.00270334;0.0001607;0.0239;149.2822;43.7035;311.6798;0;-2.1E-7;0;Intelsat
1.0027017;0.0001804;0.0235;151.0939;41.9224;55.3264;0;-2.1E-7;0;Intelsat
1.00270719;0.0001575;0.0232;151.4233;41.965;288.1699;0;-2.0E-7;0;Intelsat
1.00271212;0.0001608;0.0233;150.8274;43.0266;313.6215;0;-2.0E-7;0;Intelsat
1.0027042;0.0001733;0.0201;167.4329;27.6635;52.3566;0;-2.0E-7;0;Intelsat
1.00271496;0.0001617;0.0123;180.8821;15.2965;41.1039;0;-2.0E-7;0;Intelsat
1.00271252;0.0001625;0.012;180.2427;15.2703;58.4307;0;-2.0E-7;0;Intelsat
1.00271299;0.0001439;0.0072;239.0767;318.0814;308.6118;0;-2.0E-7;0;Intelsat
1.00272274;0.0001532;0.0066;240.0888;316.8697;111.6075;0;-2.1E-7;0;Intelsat
1.00272592;0.0001492;0.0078;244.0669;315.503;342.2138;0;-2.3E-7;0;Intelsat
1.00271711;0.0001551;0.0069;246.0882;311.5554;133.2955;0;-2.3E-7;0;Intelsat
1.00271453;0.0001411;0.0068;246.8122;310.6629;139.0148;0;-2.6E-7;0;Intelsat
1.00271544;0.0001403;0.0056;245.7477;310.2641;359.4028;0;-2.9E-7;0;Intelsat
1.00271441;0.0001482;0.0048;242.7015;311.0951;149.0736;0;-3.0E-7;0;Intelsat
1.00271921;0.0001639;0.0048;245.4328;310.9877;45.6025;0;-3.2E-7;0;Intelsat
1.00271448;0.0001661;0.0049;248.2654;306.3545;106.2442;0;-3.3E-7;0;Intelsat
1.00271788;0.0001589;0.0057;258.0016;297.2649;49.5575;0;-3.5E-7;0;Intelsat
1.00271791;0.0001598;0.0056;257.7848;297.2007;81.6153;0;-3.6E-7;0;Intelsat
1.00271954;0.0001549;0.0056;257.193;297.4298;127.9527;0;-3.6E-7;0;Intelsat
1.00271254;0.0001546;0.0063;262.4288;293.9097;51.2722;0;-3.7E-7;0;Intelsat
1.00271389;0.0001542;0.0062;262.568;293.6895;77.2703;0;-3.8E-7;0;Intelsat
1.00272202;0.0001438;0.0066;264.6448;294.5169;25.3635;0;-3.9E-7;0;Intelsat
1.002723;0.0001448;0.0062;265.3626;293.7758;51.2726;0;-3.9E-7;0;Intelsat
1.00272021;0.0001374;0.0073;269.401;292.8765;315.9558;0;-3.9E-7;0;Intelsat
1.00271891;0.0001467;0.0073;275.571;285.8187;122.8824;0;-3.9E-7;0;Intelsat
1.00271538;0.0001289;0.0073;275.9072;287.1431;38.8976;0;-3.9E-7;0;Intelsat
1.0027162;0.0001331;0.0066;279.4855;283.025;224.1899;0;-3.8E-7;0;Intelsat
1.00271704;0.0001316;0.0057;283.1397;278.3086;57.3643;0;-3.8E-7;0;Intelsat
1.00271685;0.0001455;0.0075;323.3207;231.2256;225.1174;0;-3.7E-7;0;Intelsat
1.00270776;0.0001599;0.0046;291.6225;267.566;62.4476;0;-3.6E-7;0;Intelsat
1.00270923;0.0001614;0.0045;299.341;259.3512;118.2426;0;-3.6E-7;0;Intelsat
1.00270892;0.000135;0.0052;300.0244;263.1725;268.5379;0;-3.5E-7;0;Intelsat
1.00271579;0.0001418;0.0047;303.2561;259.6912;12.4572;0;-3.5E-7;0;Intelsat
1.00273025;0.0001353;0.0054;301.4129;259.3874;141.6;0;-3.5E-7;0;Intelsat
1.00271145;0.0001301;0.0059;301.7019;263.7598;277.5711;0;-3.4E-7;0;Intelsat
1.00271217;0.0001304;0.0046;302.3545;263.2581;294.8385;0;-3.4E-7;0;Intelsat
1.00270512;0.000148;0.0061;302.4344;259.451;42.2335;0;-3.4E-7;0;Intelsat
